{
  "norad_id": 67171,
  "name": "STARLINK-35771",
  "history": [
    {
      "epoch": "2026-03-28T16:01:20.636544",
      "apogee_km": 484.04747376819705,
      "perigee_km": 481.8748384260871,
      "latitude_deg": -7.370723400660394,
      "longitude_deg": -118.81040383991785,
      "semi_major_axis_km": 6861.098156097141,
      "eccentricity": 0.00015833,
      "inclination_deg": 42.9999,
      "raan_deg": 203.8769,
      "arg_perigee_deg": 274.6889,
      "mean_anomaly_deg": 85.3781,
      "mean_motion_rev_day": 15.27609369
    }
  ]
}